[
    {
        "Altitude(m)": 604983.0530773498,
        "Argument of Periapsis(deg)": 0.0,
        "Eccentricity": 0.0,
        "Inclination(deg)": 60.0,
        "Latitude(deg)": -0.09273818554029994,
        "Longitude(deg)": -104.91608368055024,
        "Mean Anomaly(deg)": 180.0,
        "RAAN(deg)": 175.0,
        "Satellite Name": "Test1 781",
        "Satellite Number": 781,
        "Semi-Major Axis(m)": 6980739.136638005,
        "Time(s)": 0
    },
    {
        "Altitude(m)": 605055.3331699508,
        "Argument of Periapsis(deg)": 0.00010418945913296404,
        "Eccentricity": 0.0,
        "Inclination(deg)": 60.0,
        "Latitude(deg)": -0.633148297289722,
        "Longitude(deg)": -104.64795923989662,
        "Mean Anomaly(deg)": 180.62010614546185,
        "RAAN(deg)": 174.99957995086024,
        "Satellite Name": "Test1 781",
        "Satellite Number": 781,
        "Semi-Major Axis(m)": 6980739.136638005,
        "Time(s)": 10
    }
]